{
  "type": "FeatureCollection",
  "features": [
    {
      "type": "Feature",
      "properties": {
        "norad_id": 67222,
        "name": "DISKSAT D",
        "group": "last-30-days",
        "lat": -36.2637249635023,
        "lon": 145.52791335411453,
        "alt_km": 552.7439888896679,
        "timestamp": "2025-12-26T09:30:52.346170+00:00",
        "meta_object_name": "DISKSAT D",
        "meta_object_id": "2025-305D",
        "meta_epoch": "2025-12-20T07:33:21.625632",
        "meta_mean_motion": 15.05567005,
        "meta_eccentricity": 0.00044772,
        "meta_inclination": 45.0056,
        "meta_ra_of_asc_node": 310.415,
        "meta_arg_of_pericenter": 287.6101,
        "meta_mean_anomaly": 72.4284,
        "meta_ephemeris_type": 0,
        "meta_classification_type": "U",
        "meta_norad_cat_id": 67222,
        "meta_element_set_no": 999,
        "meta_rev_at_epoch": 31,
        "meta_bstar": 0.00010184381,
        "meta_mean_motion_dot": 1.252e-05,
        "meta_mean_motion_ddot": 0,
        "tle_line1": "1 67222U 25305D   25354.31483363  .00001252  00000+0  10184-3 0  9990",
        "tle_line2": "2 67222  45.0056 310.4150 0004477 287.6101  72.4284 15.05567005   317"
      },
      "geometry": {
        "type": "Point",
        "coordinates": [
          145.52791335411453,
          -36.2637249635023
        ]
      }
    },
    {
      "type": "Feature",
      "properties": {
        "norad_id": 67223,
        "name": "ELECTRON KICK STAGE R/B",
        "group": "last-30-days",
        "lat": 33.47564716272543,
        "lon": -43.14535449873095,
        "alt_km": 497.79197598227074,
        "timestamp": "2025-12-26T09:30:52.346180+00:00",
        "meta_object_name": "ELECTRON KICK STAGE R/B",
        "meta_object_id": "2025-305E",
        "meta_epoch": "2025-12-23T06:58:48.011808",
        "meta_mean_motion": 15.48545747,
        "meta_eccentricity": 0.017749,
        "meta_inclination": 44.9877,
        "meta_ra_of_asc_node": 292.9264,
        "meta_arg_of_pericenter": 166.6089,
        "meta_mean_anomaly": 193.9601,
        "meta_ephemeris_type": 0,
        "meta_classification_type": "U",
        "meta_norad_cat_id": 67223,
        "meta_element_set_no": 999,
        "meta_rev_at_epoch": 79,
        "meta_bstar": 0.00018366,
        "meta_mean_motion_dot": 0.00018707,
        "meta_mean_motion_ddot": 0,
        "tle_line1": "1 67223U 25305E   25357.29083347  .00018707  00000+0  18366-3 0  9992",
        "tle_line2": "2 67223  44.9877 292.9264 0177490 166.6089 193.9601 15.48545747   794"
      },
      "geometry": {
        "type": "Point",
        "coordinates": [
          -43.14535449873095,
          33.47564716272543
        ]
      }
    },
    {
      "type": "Feature",
      "properties": {
        "norad_id": 67224,
        "name": "ELECTRON R/B",
        "group": "last-30-days",
        "lat": -15.792865199436882,
        "lon": 110.53974857932342,
        "alt_km": 461.45456214066235,
        "timestamp": "2025-12-26T09:30:52.346190+00:00",
        "meta_object_name": "ELECTRON R/B",
        "meta_object_id": "2025-305F",
        "meta_epoch": "2025-12-18T18:27:13.126752",
        "meta_mean_motion": 15.64663678,
        "meta_eccentricity": 0.0262888,
        "meta_inclination": 45.0188,
        "meta_ra_of_asc_node": 318.3021,
        "meta_arg_of_pericenter": 280.1207,
        "meta_mean_anomaly": 77.0133,
        "meta_ephemeris_type": 0,
        "meta_classification_type": "U",
        "meta_norad_cat_id": 67224,
        "meta_element_set_no": 999,
        "meta_rev_at_epoch": 9,
        "meta_bstar": 0.00022935,
        "meta_mean_motion_dot": 0.00172783,
        "meta_mean_motion_ddot": 8.6369e-06,
        "tle_line1": "1 67224U 25305F   25352.76890193  .00172783  86369-5  22935-3 0  9995",
        "tle_line2": "2 67224  45.0188 318.3021 0262888 280.1207  77.0133 15.64663678    93"
      },
      "geometry": {
        "type": "Point",
        "coordinates": [
          110.53974857932342,
          -15.792865199436882
        ]
      }
    },
    {
      "type": "Feature",
      "properties": {
        "norad_id": 67226,
        "name": "TJS-23",
        "group": "last-30-days",
        "lat": -10.294056810729494,
        "lon": -100.6413755349472,
        "alt_km": 21346.67439238522,
        "timestamp": "2025-12-26T09:30:52.346205+00:00",
        "meta_object_name": "TJS-23",
        "meta_object_id": "2025-306A",
        "meta_epoch": "2025-12-21T08:24:49.367232",
        "meta_mean_motion": 1.72705756,
        "meta_eccentricity": 0.77540409,
        "meta_inclination": 16.401,
        "meta_ra_of_asc_node": 298.8861,
        "meta_arg_of_pericenter": 179.8382,
        "meta_mean_anomaly": 143.9016,
        "meta_ephemeris_type": 0,
        "meta_classification_type": "U",
        "meta_norad_cat_id": 67226,
        "meta_element_set_no": 999,
        "meta_rev_at_epoch": 2,
        "meta_bstar": 0.00071636348,
        "meta_mean_motion_dot": 3.331e-05,
        "meta_mean_motion_ddot": 0,
        "tle_line1": "1 67226U 25306A   25355.35057138  .00003331  00000+0  71636-3 0  9996",
        "tle_line2": "2 67226  16.4010 298.8861 7754040 179.8382 143.9016  1.72705756    20"
      },
      "geometry": {
        "type": "Point",
        "coordinates": [
          -100.6413755349472,
          -10.294056810729494
        ]
      }
    },
    {
      "type": "Feature",
      "properties": {
        "norad_id": 67227,
        "name": "CZ-5 R/B",
        "group": "last-30-days",
        "lat": -5.1987588138983565,
        "lon": -80.83463182660239,
        "alt_km": 33347.06548771716,
        "timestamp": "2025-12-26T09:30:52.346218+00:00",
        "meta_object_name": "CZ-5 R/B",
        "meta_object_id": "2025-306B",
        "meta_epoch": "2025-12-20T19:22:03.368352",
        "meta_mean_motion": 1.92163474,
        "meta_eccentricity": 0.75788222,
        "meta_inclination": 16.4229,
        "meta_ra_of_asc_node": 298.9498,
        "meta_arg_of_pericenter": 179.0262,
        "meta_mean_anomaly": 184.9269,
        "meta_ephemeris_type": 0,
        "meta_classification_type": "U",
        "meta_norad_cat_id": 67227,
        "meta_element_set_no": 999,
        "meta_rev_at_epoch": 2,
        "meta_bstar": 0.00048545663,
        "meta_mean_motion_dot": 1.201e-05,
        "meta_mean_motion_ddot": 0,
        "tle_line1": "1 67227U 25306B   25354.80698343  .00001201  00000+0  48546-3 0  9993",
        "tle_line2": "2 67227  16.4229 298.9498 7578822 179.0262 184.9269  1.92163474    23"
      },
      "geometry": {
        "type": "Point",
        "coordinates": [
          -80.83463182660239,
          -5.1987588138983565
        ]
      }
    },
    {
      "type": "Feature",
      "properties": {
        "norad_id": 67228,
        "name": "QPS-SAR-15",
        "group": "last-30-days",
        "lat": 19.504074841207007,
        "lon": -107.62830119684492,
        "alt_km": 578.7057294203951,
        "timestamp": "2025-12-26T09:30:52.346233+00:00",
        "meta_object_name": "QPS-SAR-15",
        "meta_object_id": "2025-307A",
        "meta_epoch": "2025-12-25T15:14:02.675616",
        "meta_mean_motion": 14.97088724,
        "meta_eccentricity": 0.0010062,
        "meta_inclination": 42.0066,
        "meta_ra_of_asc_node": 99.7194,
        "meta_arg_of_pericenter": 294.4282,
        "meta_mean_anomaly": 65.5493,
        "meta_ephemeris_type": 0,
        "meta_classification_type": "U",
        "meta_norad_cat_id": 67228,
        "meta_element_set_no": 999,
        "meta_rev_at_epoch": 65,
        "meta_bstar": 0.00052701,
        "meta_mean_motion_dot": 6.008e-05,
        "meta_mean_motion_ddot": 0,
        "tle_line1": "1 67228U 25307A   25359.63475319  .00006008  00000+0  52701-3 0  9995",
        "tle_line2": "2 67228  42.0066  99.7194 0010062 294.4282  65.5493 14.97088724   657"
      },
      "geometry": {
        "type": "Point",
        "coordinates": [
          -107.62830119684492,
          19.504074841207007
        ]
      }
    },
    {
      "type": "Feature",
      "properties": {
        "norad_id": 67229,
        "name": "ELECTRON KICK STAGE R/B",
        "group": "last-30-days",
        "lat": 28.47669007113463,
        "lon": -124.13982401746,
        "alt_km": 510.3046220891474,
        "timestamp": "2025-12-26T09:30:52.346243+00:00",
        "meta_object_name": "ELECTRON KICK STAGE R/B",
        "meta_object_id": "2025-307B",
        "meta_epoch": "2025-12-25T08:17:16.936224",
        "meta_mean_motion": 15.56484039,
        "meta_eccentricity": 0.0243047,
        "meta_inclination": 42.0009,
        "meta_ra_of_asc_node": 99.251,
        "meta_arg_of_pericenter": 265.5143,
        "meta_mean_anomaly": 91.7904,
        "meta_ephemeris_type": 0,
        "meta_classification_type": "U",
        "meta_norad_cat_id": 67229,
        "meta_element_set_no": 999,
        "meta_rev_at_epoch": 63,
        "meta_bstar": 0.0014659,
        "meta_mean_motion_dot": 0.00455769,
        "meta_mean_motion_ddot": 6.2045e-05,
        "tle_line1": "1 67229U 25307B   25359.34533491  .00455769  62045-4  14659-2 0  9993",
        "tle_line2": "2 67229  42.0009  99.2510 0243047 265.5143  91.7904 15.56484039   639"
      },
      "geometry": {
        "type": "Point",
        "coordinates": [
          -124.13982401746,
          28.47669007113463
        ]
      }
    }
  ]
}